NORAD_CAT_ID,OBJECT_NAME,OBJECT_TYPE,EPOCH,MEAN_MOTION,ECCENTRICITY,INCLINATION,RA_OF_ASC_NODE,ARG_OF_PERICENTER,MEAN_ANOMALY,BSTAR,MEAN_MOTION_DOT,MEAN_MOTION_DDOT,TLE_LINE0,TLE_LINE1,TLE_LINE2,SEMIMAJOR_AXIS,PERIOD,APOGEE,PERIGEE,DECAYED
54065.0,STARLINK-5187,PAYLOAD,2023-09-30 08:20:08,15.08831568,8.41e-05,53.2206,25.3661,67.2071,292.901,-4.8868e-05,-1.065e-05,0.0,0 STARLINK-5187,1 54065U 22136Q   23273.34732596 -.00001065  00000-0 -48868-4 0  9992,2 54065  53.2206  25.3661 0000841  67.2071 292.9010 15.08831568 52767,6917.906,95.438,540.353,539.189,0.0
54065.0,STARLINK-5187,PAYLOAD,2023-09-30 17:52:26,15.08863097,0.0001468,53.2188,23.5777,95.8789,264.237,0.00059367,9.179e-05,0.0,0 STARLINK-5187,1 54065U 22136Q   23273.74475405  .00009179  00000-0  59367-3 0  9996,2 54065  53.2188  23.5777 0001468  95.8789 264.2370 15.08863097 52823,6917.81,95.436,540.69,538.659,0.0
54065.0,STARLINK-5187,PAYLOAD,2023-10-01 00:13:59,15.08857943,0.000124,53.2178,22.3843,70.281,289.8316,0.0005099,7.84e-05,0.0,0 STARLINK-5187,1 54065U 22136Q   23274.00971408  .00007840  00000-0  50990-3 0  9996,2 54065  53.2178  22.3843 0001240  70.2810 289.8316 15.08857943 52863,6917.826,95.436,540.548,538.833,0.0
54065.0,STARLINK-5187,PAYLOAD,2023-10-01 12:57:04,15.08847455,0.0001925,53.2207,20.0108,93.735,266.3862,3.1531e-05,2.14e-06,0.0,0 STARLINK-5187,1 54065U 22136Q   23274.53963666  .00000214  00000-0  31531-4 0  9990,2 54065  53.2207  20.0108 0001925  93.7350 266.3862 15.08847455 52946,6917.858,95.437,541.054,538.391,0.0
54065.0,STARLINK-5187,PAYLOAD,2023-10-01 16:07:50,15.08855102,0.0001614,53.2203,19.4193,88.2396,271.8781,0.00025491,3.773e-05,0.0,0 STARLINK-5187,1 54065U 22136Q   23274.67211393  .00003773  00000-0  25491-3 0  9998,2 54065  53.2203  19.4193 0001614  88.2396 271.8781 15.08855102 52480,6917.834,95.437,540.816,538.583,0.0
54065.0,STARLINK-5187,PAYLOAD,2023-10-02 12:47:52,15.08829269,0.0001449,53.2181,15.5489,80.1528,279.9627,5.9065e-05,6.52e-06,0.0,0 STARLINK-5187,1 54065U 22136Q   23275.53324624  .00000652  00000-0  59065-4 0  9994,2 54065  53.2181  15.5489 0001449  80.1528 279.9627 15.08829269 53095,6917.913,95.438,540.781,538.776,0.0
54065.0,STARLINK-5187,PAYLOAD,2023-10-02 19:09:24,15.0884465,0.0001326,53.2175,14.3592,99.2597,260.8545,0.00099083,0.00015518,0.0,0 STARLINK-5187,1 54065U 22136Q   23275.79820461  .00015518  00000-0  99083-3 0  9992,2 54065  53.2175  14.3592 0001326  99.2597 260.8545 15.08844650 53135,6917.866,95.437,540.648,538.814,0.0
54065.0,STARLINK-5187,PAYLOAD,2023-10-02 23:55:34,15.08836214,0.0001361,53.2182,13.468,88.2137,271.9011,0.00082343,0.0001284,0.0,0 STARLINK-5187,1 54065U 22136Q   23275.99692837  .00012840  00000-0  82343-3 0  9994,2 54065  53.2182  13.4680 0001361  88.2137 271.9011 15.08836214 53169,6917.892,95.438,540.698,538.815,0.0
54065.0,STARLINK-5187,PAYLOAD,2023-10-03 14:14:02,15.08861073,0.0001392,53.2173,10.7926,89.638,270.4772,0.002209,0.00035064,0.0,0 STARLINK-5187,1 54065U 22136Q   23276.59308832  .00035064  00000-0  22090-2 0  9995,2 54065  53.2173  10.7926 0001392  89.6380 270.4772 15.08861073 52776,6917.816,95.436,540.644,538.718,0.0
54065.0,STARLINK-5187,PAYLOAD,2023-10-03 19:00:11,15.08874354,0.0001405,53.2167,9.8992,92.4193,267.696,0.0022197,0.00035249,0.0,0 STARLINK-5187,1 54065U 22136Q   23276.79180459  .00035249  00000-0  22197-2 0  9993,2 54065  53.2167   9.8992 0001405  92.4193 267.6960 15.08874354 53280,6917.775,95.435,540.612,538.668,0.0
54065.0,STARLINK-5187,PAYLOAD,2023-10-04 10:54:03,15.08859518,0.000159,53.2184,6.9255,68.6501,291.4661,0.0017945,0.00028402,0.0,0 STARLINK-5187,1 54065U 22136Q   23277.45420732  .00028402  00000-0  17945-2 0  9996,2 54065  53.2184   6.9255 0001590  68.6501 291.4661 15.08859518 53381,6917.821,95.436,540.786,538.586,0.0
54065.0,STARLINK-5187,PAYLOAD,2023-10-04 12:29:26,15.0886727,0.0001458,53.2181,6.6281,76.6773,283.4382,0.0023937,0.00038042,0.0,0 STARLINK-5187,1 54065U 22136Q   23277.52044584  .00038042  00000-0  23937-2 0  9990,2 54065  53.2181   6.6281 0001458  76.6773 283.4382 15.08867270 52910,6917.797,95.436,540.671,538.653,0.0
54065.0,STARLINK-5187,PAYLOAD,2023-10-04 17:15:35,15.08882065,0.0001566,53.2179,5.7356,77.3177,282.799,0.0026985,0.0004297,0.0,0 STARLINK-5187,1 54065U 22136Q   23277.71916193  .00042970  00000-0  26985-2 0  9996,2 54065  53.2179   5.7356 0001566  77.3177 282.7990 15.08882065 52945,6917.752,95.435,540.7,538.533,0.0
54065.0,STARLINK-5187,PAYLOAD,2023-10-04 23:37:08,15.08852597,0.0001388,53.2188,4.5479,78.5467,281.5681,0.00042307,6.454e-05,0.0,0 STARLINK-5187,1 54065U 22136Q   23277.98412289  .00006454  00000-0  42307-3 0  9996,2 54065  53.2188   4.5479 0001388  78.5467 281.5681 15.08852597 53464,6917.842,95.437,540.667,538.747,0.0
54065.0,STARLINK-5187,PAYLOAD,2023-10-05 10:44:50,15.08851708,0.0001578,53.2172,2.4655,98.7119,261.4052,0.0015078,0.00023798,0.0,0 STARLINK-5187,1 54065U 22136Q   23278.44780487  .00023798  00000-0  15078-2 0  9990,2 54065  53.2172   2.4655 0001578  98.7119 261.4052 15.08851708 53539,6917.845,95.437,540.801,538.618,0.0
54065.0,STARLINK-5187,PAYLOAD,2023-10-05 12:20:13,15.08849092,0.0001672,53.2184,2.1686,88.3688,271.7496,0.0014982,0.00023642,0.0,0 STARLINK-5187,1 54065U 22136Q   23278.51404597  .00023642  00000-0  14982-2 0  9994,2 54065  53.2184   2.1686 0001672  88.3688 271.7496 15.08849092 53061,6917.853,95.437,540.874,538.561,0.0
54065.0,STARLINK-5187,PAYLOAD,2023-10-06 10:35:37,15.08839747,0.0001517,53.2183,358.0052,100.4834,259.6329,0.00086191,0.00013456,0.0,0 STARLINK-5187,1 54065U 22136Q   23279.44141161  .00013456  00000-0  86191-3 0  9996,2 54065  53.2183 358.0052 0001517 100.4834 259.6329 15.08839747 53681,6917.881,95.438,540.796,538.697,0.0
54065.0,STARLINK-5187,PAYLOAD,2023-10-06 12:11:00,15.08848416,0.000135,53.218,357.7082,93.6362,266.4784,0.00078739,0.00012268,0.0,0 STARLINK-5187,1 54065U 22136Q   23279.50765032  .00012268  00000-0  78739-3 0  9991,2 54065  53.2180 357.7082 0001350  93.6362 266.4784 15.08848416 53214,6917.855,95.437,540.654,538.786,0.0
54065.0,STARLINK-5187,PAYLOAD,2023-10-06 16:57:10,15.08858714,0.0001515,53.2185,356.8152,93.2099,266.9066,0.0011603,0.00018236,0.0,0 STARLINK-5187,1 54065U 22136Q   23279.70636845  .00018236  00000-0  11603-2 0  9999,2 54065  53.2185 356.8152 0001515  93.2099 266.9066 15.08858714 53729,6917.823,95.436,540.736,538.64,0.0
54065.0,STARLINK-5187,PAYLOAD,2023-10-06 21:43:20,15.08842595,0.0002526,53.218,355.9214,98.0716,262.0563,0.0002502,3.696e-05,0.0,0 STARLINK-5187,1 54065U 22136Q   23279.90509508  .00003696  00000-0  25020-3 0  9999,2 54065  53.2180 355.9214 0002526  98.0716 262.0563 15.08842595 53274,6917.872,95.437,541.485,537.99,0.0
54065.0,STARLINK-5187,PAYLOAD,2023-10-07 12:01:48,15.08853346,0.0001571,53.2191,353.2499,85.1503,274.9668,0.0012177,0.00019152,0.0,0 STARLINK-5187,1 54065U 22136Q   23280.50125161  .00019152  00000-0  12177-2 0  9998,2 54065  53.2191 353.2499 0001571  85.1503 274.9668 15.08853346 53366,6917.84,95.437,540.791,538.618,0.0
54065.0,STARLINK-5187,PAYLOAD,2023-10-07 16:47:57,15.08865343,0.0001575,53.219,352.3582,83.9743,276.1429,0.0016637,0.00026307,0.0,0 STARLINK-5187,1 54065U 22136Q   23280.69996868  .00026307  00000-0  16637-2 0  9993,2 54065  53.2190 352.3582 0001575  83.9743 276.1429 15.08865343 53879,6917.803,95.436,540.757,538.578,0.0
54065.0,STARLINK-5187,PAYLOAD,2023-10-08 10:17:12,15.08846192,0.0001459,53.2184,349.085,89.5516,270.5643,0.0015084,0.00023804,0.0,0 STARLINK-5187,1 54065U 22136Q   23281.42861326  .00023804  00000-0  15084-2 0  9999,2 54065  53.2184 349.0850 0001459  89.5516 270.5643 15.08846192 53983,6917.861,95.437,540.736,538.717,0.0
54065.0,STARLINK-5187,PAYLOAD,2023-10-08 11:52:35,15.08857286,0.0001374,53.2178,348.7888,87.6214,272.4936,0.0023435,0.00037224,0.0,0 STARLINK-5187,1 54065U 22136Q   23281.49485255  .00037224  00000-0  23435-2 0  9999,2 54065  53.2178 348.7888 0001374  87.6214 272.4936 15.08857286 53514,6917.828,95.436,540.643,538.742,0.0
54065.0,STARLINK-5187,PAYLOAD,2023-10-08 15:03:21,15.08868013,0.000138,53.2178,348.1935,88.4307,271.6843,0.0025278,0.00040203,0.0,0 STARLINK-5187,1 54065U 22136Q   23281.62733059  .00040203  00000-0  25278-2 0  9990,2 54065  53.2178 348.1935 0001380  88.4307 271.6843 15.08868013 54014,6917.795,95.436,540.614,538.705,0.0
54065.0,STARLINK-5187,PAYLOAD,2023-10-08 21:24:54,15.08847254,0.0001777,53.2179,347.0039,84.9201,275.1993,0.00116,0.00018225,0.0,0 STARLINK-5187,1 54065U 22136Q   23281.89229369  .00018225  00000-0  11600-2 0  9996,2 54065  53.2179 347.0039 0001777  84.9201 275.1993 15.08847254 54055,6917.858,95.437,540.953,538.494,0.0
54065.0,STARLINK-5187,PAYLOAD,2023-10-09 08:32:36,15.08851903,0.0002063,53.2181,344.9232,80.4994,279.6231,0.0013957,0.00022002,0.0,0 STARLINK-5187,1 54065U 22136Q   23282.35597538  .00022002  00000-0  13957-2 0  9999,2 54065  53.2181 344.9232 0002063  80.4994 279.6231 15.08851903 54126,6917.844,95.437,541.136,538.282,0.0
54065.0,STARLINK-5187,PAYLOAD,2023-10-09 11:43:22,15.08853576,0.0002045,53.2184,344.3284,79.6884,280.4338,0.0013565,0.00021375,0.0,0 STARLINK-5187,1 54065U 22136Q   23282.48845427  .00021375  00000-0  13565-2 0  9993,2 54065  53.2184 344.3284 0002045  79.6884 280.4338 15.08853576 53662,6917.839,95.437,541.119,538.289,0.0
54065.0,STARLINK-5187,PAYLOAD,2023-10-09 16:29:31,15.0886944,0.0002138,53.2182,343.4358,77.2631,282.86,0.0016894,0.00026723,0.0,0 STARLINK-5187,1 54065U 22136Q   23282.68717043  .00026723  00000-0  16894-2 0  9997,2 54065  53.2182 343.4358 0002138  77.2631 282.8600 15.08869440 53697,6917.79,95.436,541.134,538.176,0.0
54065.0,STARLINK-5187,PAYLOAD,2023-10-10 11:34:09,15.08863606,0.0001897,53.2173,339.8682,83.9049,276.216,0.0023214,0.00036875,0.0,0 STARLINK-5187,1 54065U 22136Q   23283.48205120  .00036875  00000-0  23214-2 0  9997,2 54065  53.2173 339.8682 0001897  83.9049 276.2160 15.08863606 54297,6917.808,95.436,540.986,538.361,0.0
